{
    "links": {
        "self": "http://www.neowsapp.com/rest/v1/neo/54054334?api_key=iIulBulltgU6a56xZRHN4H3l9WmuAYTsLGpBGhQ2"
    },
    "id": "54054334",
    "neo_reference_id": "54054334",
    "name": "(2020 RC7)",
    "designation": "2020 RC7",
    "nasa_jpl_url": "http://ssd.jpl.nasa.gov/sbdb.cgi?sstr=54054334",
    "absolute_magnitude_h": 25.891,
    "estimated_diameter": {
        "kilometers": {
            "estimated_diameter_min": 0.0176341681,
            "estimated_diameter_max": 0.0394311986
        },
        "meters": {
            "estimated_diameter_min": 17.6341681066,
            "estimated_diameter_max": 39.431198613
        },
        "miles": {
            "estimated_diameter_min": 0.0109573607,
            "estimated_diameter_max": 0.0245014033
        },
        "feet": {
            "estimated_diameter_min": 57.8548840908,
            "estimated_diameter_max": 129.3674536574
        }
    },
    "is_potentially_hazardous_asteroid": false,
    "close_approach_data": [
        {
            "close_approach_date": "2020-09-18",
            "close_approach_date_full": "2020-Sep-18 08:12",
            "epoch_date_close_approach": 1600416720000,
            "relative_velocity": {
                "kilometers_per_second": "8.4509609255",
                "kilometers_per_hour": "30423.4593317903",
                "miles_per_hour": "18903.9544942449"
            },
            "miss_distance": {
                "astronomical": "0.0398871339",
                "lunar": "15.5160950871",
                "kilometers": "5967030.271844793",
                "miles": "3707740.6807044234"
            },
            "orbiting_body": "Earth"
        }
    ],
    "orbital_data": {
        "orbit_id": "5",
        "orbit_determination_date": "2020-09-24 08:25:33",
        "first_observation_date": "2020-09-15",
        "last_observation_date": "2020-09-24",
        "data_arc_in_days": 9,
        "observations_used": 38,
        "orbit_uncertainty": "8",
        "minimum_orbit_intersection": ".0396848",
        "jupiter_tisserand_invariant": "3.277",
        "epoch_osculation": "2459109.5",
        "eccentricity": ".5673667424214208",
        "semi_major_axis": "2.397090166316161",
        "inclination": "8.194313005310702",
        "ascending_node_longitude": "171.7520205331253",
        "orbital_period": "1355.579468106513",
        "perihelion_distance": "1.037060927362939",
        "perihelion_argument": "194.3528362319342",
        "aphelion_distance": "3.757119405269383",
        "perihelion_time": "2459119.655785922563",
        "mean_anomaly": "357.302937217521",
        "mean_motion": ".2655690857451918",
        "equinox": "J2000",
        "orbit_class": {
            "orbit_class_type": "AMO",
            "orbit_class_description": "Near-Earth asteroid orbits similar to that of 1221 Amor",
            "orbit_class_range": "1.017 AU < q (perihelion) < 1.3 AU"
        }
    },
    "is_sentry_object": false
}